[{"OBJECT_NAME":"STARLINK-5536","OBJECT_ID":"2023-088Q","EPOCH":"2026-03-09T22:00:01.999584","MEAN_MOTION":15.07188114,"ECCENTRICITY":8.274e-5,"INCLINATION":43.001,"RA_OF_ASC_NODE":92.8733,"ARG_OF_PERICENTER":302.3709,"MEAN_ANOMALY":208.435,"EPHEMERIS_TYPE":0,"CLASSIFICATION_TYPE":"U","NORAD_CAT_ID":57062,"ELEMENT_SET_NO":999,"REV_AT_EPOCH":573,"BSTAR":0.003327946,"MEAN_MOTION_DOT":0.00051092,"MEAN_MOTION_DDOT":0},{"OBJECT_NAME":"NAXING 1","OBJECT_ID":"2004-012B","EPOCH":"2026-03-09T22:31:20.183520","MEAN_MOTION":15.05443462,"ECCENTRICITY":0.00121665,"INCLINATION":98.0152,"RA_OF_ASC_NODE":92.9199,"ARG_OF_PERICENTER":69.4128,"MEAN_ANOMALY":290.8402,"EPHEMERIS_TYPE":0,"CLASSIFICATION_TYPE":"U","NORAD_CAT_ID":28221,"ELEMENT_SET_NO":999,"REV_AT_EPOCH":19231,"BSTAR":0.00025838798,"MEAN_MOTION_DOT":3.649e-5,"MEAN_MOTION_DDOT":0}]
